#cP2022  3 14  0  0  0.00000000     576 d+D   IGb14 EXT AIUB
## 2201  86400.00000000   300.00000000 59652 0.0000000000000
+   77   G01G02G03G04G05G06G07G08G09G10G11G12G13G14G15G16G17
+        G18G19G20G21G22G23G24G25G26G27G28G29G30G31G32R01R02
+        R03R04R05R07R08R09R12R13R14R15R17R18R19R20R21R22R24
+        E01E02E03E04E05E07E08E09E10E11E12E13E14E15E18E19E21
+        E24E25E26E27E30E31E33E34E36  0  0  0  0  0  0  0  0
++         6  7  6  8  7  7  7  6  5  5  8  7  7  7  7  7  7
++         8  8  7  7  6  7  7  6  6  6  7  7  5  7  6  8  7
++         7  8  8  8  8  7  7  7  7  7  8  7  9  9  8  8  7
++         6  6  7  7  7  7  6  7  7  7  6  6  7  7  7  8  6
++         6  6  7  6  6  6  6  7  6  0  0  0  0  0  0  0  0
%c M  cc GPS ccc cccc cccc cccc cccc ccccc ccccc ccccc ccccc
%c cc cc ccc ccc cccc cccc cccc cccc ccccc ccccc ccccc ccccc
%f  1.2500000  1.025000000  0.00000000000  0.000000000000000
%f  0.0000000  0.000000000  0.00000000000  0.000000000000000
%i    0    0    0    0      0      0      0      0         0
%i    0    0    0    0      0      0      0      0         0
/* Center for Orbit Determination in Europe (CODE)          
/* Ultra-rapid GRE orbits starting year-day 22073 00 hour   
/* Observed/predicted: 24/24 hours (data used up to 073X)   
/* PCV:IGS14      OL/AL:FES2014b NONE     YN ORB:CoN CLK:BRD
*  2022  3 15  5 40  0.00000000
PG01 -12081.341976  21445.213894  -9785.020730    408.618683               P   P
PG02  20224.520846 -13561.525210 -10105.529883   -652.262919               P   P
PG03  -4969.323960  14204.525746 -21984.103624   -164.126858               P   P
PG04  -2193.491006  23848.983612 -11385.541880   -183.534352               P   P
PG05  20548.075711  -6767.411906  15348.849782    -74.723204               P   P
PG06  16649.037879   2324.205701 -20516.013718    231.838640               P   P
PG07   2899.027243  17493.035539  20011.297271    316.058488               P   P
PG08  -8590.061561  16420.853523  18860.449618    -59.902014               P   P
PG09   6996.798565  25577.859187  -1217.341229   -349.682622               P   P
PG10 -22253.600979 -11791.497212   9033.665618   -347.357992               P   P
PG11  22021.147648 -10369.542250 -10621.593705    -63.066442               P   P
PG12   9319.696052 -12609.932031 -21687.915937   -185.091353               P   P
PG13  13514.447860  -8122.327594  21195.769216    277.095635               P   P
PG14  21154.508629  13095.024571   9397.432004    -93.961304               P   P
PG15   6682.698134 -18019.037435  17794.227811    -76.688734               P   P
PG16 -23497.894287    954.802252  12512.534030   -480.792974               P   P
PG17  13161.293258  18645.362361 -13113.536120    587.397946               P   P
PG18  -1870.329361 -17404.603626  19939.861744    219.525840               P   P
PG19  14960.634137  11742.843467 -18880.540549    131.195636               P   P
PG20  25358.887828  -2822.221000   6912.856349    516.296133               P   P
PG21 -17724.420866  19233.723825   2147.775064    159.400028               P   P
PG22 -15535.929274  -8548.875723 -19427.371372    227.725902               P   P
PG23 -13136.553654 -15170.764401  17437.937455     -6.916777               P   P
PG24  13460.604028 -22148.742394  -4986.253591    267.897197               P   P
PG25  -5586.963079 -16273.948108 -20590.783311    298.493458               P   P
PG26 -26336.520317  -4500.534930    744.546919    190.898279               P   P
PG27 -14193.406506   4352.146499  21817.077739    154.364885               P   P
PG28  24473.031692   9902.513751   1846.649682    380.176756               P   P
PG29  -3496.722047 -26146.129068  -2874.996356   -491.510858               P   P
PG30  10596.807483  11707.828004  21422.828596   -518.762642               P   P
PG31 -18781.470914   -386.476937 -19078.830779   -168.985721               P   P
PG32 -15691.673640 -14901.684084 -15387.727793    -85.067930               P   P
PR01  -9393.897945 -19425.294336  13599.832453      7.239515               P   P
PR02 -18475.863593 -16650.890506  -5760.717768    512.543127               P   P
PR03 -15774.659977  -3506.717634 -19708.055581     53.151027               P   P
PR04  -4106.312589  11194.661742 -22516.488158    131.988647               P   P
PR05   9629.724821  19806.693124 -12834.582896     89.396983               P   P
PR07  15377.798798   2751.091203  20191.930164     32.645117               P   P
PR08   4076.547662 -11411.393344  22509.621919    -64.015709               P   P
PR09  19038.000285   3928.868723  16569.478648     44.407284               P   P
PR12  -1566.378455 -10913.675390 -22981.955641     17.443085               P   P
PR13 -18047.560667  -4417.797700 -17499.379923    -19.468220               P   P
PR14 -24945.507073   5249.435168   -703.357811     75.391743               P   P
PR15 -16699.797686  11331.017085  15615.381567     97.525566               P   P
PR17 -12554.810399   8286.237673  20618.972731    509.636365               P   P
PR18 -11006.952358  21550.523090   7990.041150    110.340200               P   P
PR19  -4940.619658  23745.076163  -7894.091715   -181.625711               P   P
PR20   6370.283898  11030.506750 -22081.184832    -66.769100               P   P
PR21  12653.363479  -9657.897964 -19924.636536   -285.403391               P   P
PR22  10880.838645 -22018.100814  -7098.383620   -170.689463               P   P
PR24  -7383.440202 -10391.692490  22110.674085     84.438791               P   P
PE01 -12992.806292  13954.057667  22639.557341   -597.044631               P   P
PE02  12789.238912 -14028.309841 -22712.810560    286.341491               P   P
PE03   4541.340529 -22524.629783  18654.879158   -537.507608               P   P
PE04  10084.771031  27709.065897  -2571.248472   -984.820081               P   P
PE05  16769.520593  -3999.949954  24066.553918   -200.256673               P   P
PE07 -19063.919437 -16594.392341 -15393.332973   -648.471160               P   P
PE08 -10436.722149 -27603.590277   2234.049536   -495.352156               P   P
PE09  19088.970402  16361.015763  15639.601225   5328.077141               P   P
PE10   8160.920540  15217.652329 -24043.991912   -500.591747               P   P
PE11  15674.244362   5545.513918 -24496.690883   4226.629324               P   P
PE12   -208.436498  22045.977665 -19735.996210   4712.916865               P   P
PE13 -15188.436836  -6174.330933  24650.156241    427.287968               P   P
PE14 -11261.062292  14586.184395  17124.565186  -1778.647983               P   P
PE15    346.613203 -22117.468823  19683.654750    757.714929               P   P
PE18  18830.945629  -7156.335491 -24002.229341  -1682.642766               P   P
PE19  -6289.686289  20758.610135 -20131.951923  -1337.403696               P   P
PE21 -27412.256596   3982.928478  10440.626251   -722.609691               P   P
PE24  26257.291253   9716.883251   9546.223954   -506.090343               P   P
PE25  27509.498237  -3822.283240 -10222.371622   -566.844483               P   P
PE26 -21828.739120  14024.983988  14249.363256   -913.863352               P   P
PE27 -26949.953224  -8893.796879  -8442.743894   -253.445550               P   P
PE30  -9413.386981 -16674.920012 -22591.810623   -349.610491               P   P
PE31  10620.038842  16433.906082  22209.054475   -493.547895               P   P
PE33 -15614.601527  24941.898226  -3121.570670   -458.554838               P   P
PE34  15447.544297 -25029.228267   3331.085633   -506.823735               P   P
PE36  21709.775208 -13313.836105 -15093.545020   -345.474445               P   P
EOF
